[{"OBJECT_NAME":"VIZARD-METEO (RS38S)","OBJECT_ID":"2023-091Z","EPOCH":"2026-03-09T23:01:09.168960","MEAN_MOTION":15.32764799,"ECCENTRICITY":0.00087615,"INCLINATION":97.5192,"RA_OF_ASC_NODE":136.6522,"ARG_OF_PERICENTER":71.7666,"MEAN_ANOMALY":288.4529,"EPHEMERIS_TYPE":0,"CLASSIFICATION_TYPE":"U","NORAD_CAT_ID":57189,"ELEMENT_SET_NO":999,"REV_AT_EPOCH":14947,"BSTAR":0.00066106249,"MEAN_MOTION_DOT":0.00020895,"MEAN_MOTION_DDOT":0},{"OBJECT_NAME":"STARLINK-35658","OBJECT_ID":"2025-237N","EPOCH":"2026-03-09T07:04:07.498272","MEAN_MOTION":15.30191447,"ECCENTRICITY":0.0001187,"INCLINATION":53.1605,"RA_OF_ASC_NODE":41.2013,"ARG_OF_PERICENTER":89.7512,"MEAN_ANOMALY":270.3624,"EPHEMERIS_TYPE":0,"CLASSIFICATION_TYPE":"U","NORAD_CAT_ID":66126,"ELEMENT_SET_NO":999,"REV_AT_EPOCH":2254,"BSTAR":0.00073093955,"MEAN_MOTION_DOT":0.00021346,"MEAN_MOTION_DDOT":0}]
